{
  "norad_id": 40663,
  "name": "DIRECTV 15",
  "history": [
    {
      "epoch": "2026-03-28T16:00:28.272960Z",
      "apogee_km": 35788.40532545671,
      "perigee_km": 35784.08600609643,
      "latitude_deg": -0.007592389433417583,
      "longitude_deg": -102.86075641182121,
      "height_km": 35787.179768368376,
      "semi_major_axis_km": 42164.382665776575,
      "eccentricity": 5.122e-05,
      "inclination_deg": 0.0304,
      "raan_deg": 95.2178,
      "arg_perigee_deg": 96.5375,
      "mean_anomaly_deg": 131.558,
      "mean_motion_rev_day": 1.00273031
    },
    {
      "epoch": "2026-03-29T03:59:16.826208Z",
      "apogee_km": 35788.13885510245,
      "perigee_km": 35782.674459844435,
      "latitude_deg": 0.005624006775871783,
      "longitude_deg": -102.87013269586248,
      "height_km": 35784.2933618501,
      "semi_major_axis_km": 42163.54365747344,
      "eccentricity": 6.48e-05,
      "inclination_deg": 0.0291,
      "raan_deg": 97.1725,
      "arg_perigee_deg": 123.9045,
      "mean_anomaly_deg": 282.4331,
      "mean_motion_rev_day": 1.00276024
    },
    {
      "epoch": "2026-03-29T05:41:51.987264Z",
      "apogee_km": 35788.275973044016,
      "perigee_km": 35783.20450188989,
      "latitude_deg": 0.01822383010323263,
      "longitude_deg": -102.86752370190747,
      "height_km": 35783.46217983239,
      "semi_major_axis_km": 42163.87723746696,
      "eccentricity": 6.014e-05,
      "inclination_deg": 0.0291,
      "raan_deg": 97.2862,
      "arg_perigee_deg": 118.1892,
      "mean_anomaly_deg": 313.7518,
      "mean_motion_rev_day": 1.00274834
    },
    {
      "epoch": "2026-03-31T15:53:06.521856Z",
      "apogee_km": 35788.96925082771,
      "perigee_km": 35784.331124237084,
      "latitude_deg": 0.0011635582786576055,
      "longitude_deg": -102.86229927913568,
      "height_km": 35787.90029205698,
      "semi_major_axis_km": 42164.7871875324,
      "eccentricity": 5.5e-05,
      "inclination_deg": 0.0283,
      "raan_deg": 99.7621,
      "arg_perigee_deg": 85.6728,
      "mean_anomaly_deg": 138.9937,
      "mean_motion_rev_day": 1.00271588
    },
    {
      "epoch": "2026-04-01T15:50:35.714112Z",
      "apogee_km": 35788.71554716658,
      "perigee_km": 35785.96635800407,
      "latitude_deg": 0.0025757549447669877,
      "longitude_deg": -102.87558523852118,
      "height_km": 35787.9752116463,
      "semi_major_axis_km": 42165.47795258533,
      "eccentricity": 3.26e-05,
      "inclination_deg": 0.0304,
      "raan_deg": 97.0584,
      "arg_perigee_deg": 81.7171,
      "mean_anomaly_deg": 146.0005,
      "mean_motion_rev_day": 1.00269124
    },
    {
      "epoch": "2026-04-02T15:16:09.986016Z",
      "apogee_km": 35788.54516914884,
      "perigee_km": 35785.94778152676,
      "latitude_deg": 0.005924445772217971,
      "longitude_deg": -102.88621736110008,
      "height_km": 35787.83197386583,
      "semi_major_axis_km": 42165.3834753378,
      "eccentricity": 3.08e-05,
      "inclination_deg": 0.0348,
      "raan_deg": 90.6904,
      "arg_perigee_deg": 79.0366,
      "mean_anomaly_deg": 147.3964,
      "mean_motion_rev_day": 1.00269461
    }
  ]
}